id,name,address,city,email,phone,country
5996,Kaede Sue,66,Pirus,Kaede.Sue4422@virtex.rum,39,EU
36,Licia Wolf,35,Pilington,Licia.Wolf1260@cmail.com,35,CM
17,Steve Doe,16,Syndye,Steve.Doe272@muli.ry,16,GZ
62,Lisa Tarski,61,Syndye,Lisa.Tarski3782@virtex.rum,61,JU
6,Mary Tarski,5,Lumdum,Mary.Tarski30@ferser.edu,5,PR
9,Ivan Doe,8,Kustruma,Ivan.Doe72@virtex.rum,8,GZ
19,Steve Sue,18,Syndye,Steve.Sue342@virtex.rum,18,AI
31,Björn Dawn,30,Muxicu,Björn.Dawn930@atomlema.ocg,30,JU
23,Steve Dawn,22,Pirus,Steve.Dawn506@virtex.rum,22,EU
8,Mary Honjo,7,Pilington,Mary.Honjo56@atomlema.ocg,7,JU
5957,Björn Wolf,27,,Björn.Wolf756@virtex.rum,27,AI
28,Björn Wolf,27,,Björn.Wolf756@virtex.rum,27,AI
40,Licia Honjo,39,Pirus,Licia.Honjo1560@atomlema.ocg,39,JU
49,Emily Doe,48,Pilington,Emily.Doe2352@cmail.com,48,RI
18,Steve Smith,17,Lumdum,Steve.Smith306@cmail.com,17,EU
32,Björn Honjo,31,Kustruma,Björn.Honjo992@virtex.rum,31,RI
34,Licia Smith,33,Pilington,Licia.Smith1122@ferser.edu,33,FC
52,Emily Wolf,51,Lumdum,Emily.Wolf2652@cmail.com,51,GZ
61,Lisa Shiramine,60,Kustruma,Lisa.Shiramine3660@virtex.rum,60,RI
25,Björn Doe,24,Pilington,Björn.Doe600@muli.ry,24,FC
72,Kaede Honjo,71,Pirus,Kaede.Honjo5112@muli.ry,71,AI
11,Ivan Sue,10,Kustruma,Ivan.Sue110@cmail.com,10,FC
5976,Maxine Dawn,36,Kustruma,Maxine.Dawn2162@muli.ry,46,PR
65,Kaede Doe,64,Kustruma,Kaede.Doe4160@atomlema.ocg,64,FC
33,Licia Doe,32,Kustruma,Licia.Doe1056@cmail.com,32,RI
51,Emily Sue,50,Syndye,Emily.Sue2550@atomlema.ocg,50,JU
10,Ivan Smith,9,Pirus,Ivan.Smith90@virtex.rum,9,AI
70,Kaede Tarski,69,Roit,Kaede.Tarski4830@virtex.rum,69,GZ
45,Maxine Shiramine,44,Muxicu,Maxine.Shiramine1980@atomlema.ocg,44,CM
1,Mary Doe,,Lumdum,Mary.Doe0@muli.ry,4,EU
56,Emily Honjo,55,Kustruma,Emily.Honjo3080@ferser.edu,55,GZ
30,Björn Tarski,29,Lumdum,Björn.Tarski870@ferser.edu,29,PR
20,Steve Wolf,19,Pilington,Steve.Wolf380@muli.ry,19,RI
38,Licia Tarski,37,Roit,Licia.Tarski1406@virtex.rum,37,PR
26,Björn Smith,25,Pilington,Björn.Smith650@virtex.rum,25,RI
39,Licia Dawn,38,Roit,Licia.Dawn1482@atomlema.ocg,38,FC
5972,Maxine Sue,42,Roit,Maxine.Sue1806@cmail.com,42,FC
11859,Mary Doe,,Lumdum,Mary.Doe-5926@ferser.edu,0,EU
27,Björn Sue,26,Roit,Björn.Sue702@cmail.com,26,CM
37,Licia Shiramine,36,Lumdum,Licia.Shiramine1332@ferser.edu,36,JU
64,Lisa Honjo,63,Pirus,Lisa.Honjo4032@virtex.rum,63,AI
12,Ivan Wolf,11,Kustruma,Ivan.Wolf132@cmail.com,11,GZ
55,Emily Dawn,54,Syndye,Emily.Dawn2970@virtex.rum,54,PR
54,Emily Tarski,53,Pilington,Emily.Tarski2862@ferser.edu,53,EU
5,Mary Shiramine,4,Pirus,Mary.Shiramine20@virtex.rum,4,EU
57,Lisa Doe,56,Roit,Lisa.Doe3192@virtex.rum,56,AI
48,Maxine Honjo,47,Roit,Maxine.Honjo2256@muli.ry,47,AI
60,Lisa Wolf,59,Syndye,Lisa.Wolf3540@cmail.com,59,FC
11886,Björn Wolf,28,Kustruma,Björn.Wolf756@virtex.rum,27,AI
5970,Maxine Doe,40,Lumdum,Maxine.Doe1640@ferser.edu,40,CM
46,Maxine Tarski,45,Lumdum,Maxine.Tarski2070@cmail.com,45,EU
24,Steve Honjo,23,Syndye,Steve.Honjo552@ferser.edu,23,FC
66,Kaede Smith,65,Pirus,Kaede.Smith4290@muli.ry,65,RI
13,Ivan Shiramine,12,Syndye,Ivan.Shiramine156@cmail.com,12,AI
68,Kaede Wolf,67,Pilington,Kaede.Wolf4556@ferser.edu,67,FC
42,Maxine Smith,41,Roit,Maxine.Smith1722@muli.ry,41,AI
53,Emily Shiramine,52,Kustruma,Emily.Shiramine2756@ferser.edu,52,FC
14,Ivan Tarski,13,Syndye,Ivan.Tarski182@virtex.rum,13,JU
71,Kaede Dawn,70,Roit,Kaede.Dawn4970@atomlema.ocg,70,CM
7,Mary Dawn,6,Syndye,Mary.Dawn42@atomlema.ocg,6,PR
3,Mary Sue,2,Pilington,Mary.Sue6@ferser.edu,2,JU
2,Mary Smith,1,Muxicu,Mary.Smith2@atomlema.ocg,1,RI
17788,Mary Doe,0,Kustruma,Mary.Doe35099692@virtex.rum,0,EU
5930,Mary Doe,,Lumdum,Mary.Doe-5926@ferser.edu,0,
58,Lisa Smith,57,Syndye,Lisa.Smith3306@virtex.rum,57,CM
29,Björn Shiramine,28,Syndye,Björn.Shiramine812@virtex.rum,28,EU
35,Licia Sue,34,Kustruma,Licia.Sue1190@virtex.rum,34,RI
69,Kaede Shiramine,68,Pilington,Kaede.Shiramine4692@muli.ry,68,RI
22,Steve Tarski,21,Pilington,Steve.Tarski462@atomlema.ocg,21,PR
63,Lisa Dawn,62,Pilington,Lisa.Dawn3906@atomlema.ocg,62,EU
4,Mary Wolf,3,Syndye,Mary.Wolf12@atomlema.ocg,3,CM
50,Emily Smith,49,Roit,Emily.Smith2450@atomlema.ocg,49,JU
16,Ivan Honjo,15,Roit,Ivan.Honjo240@ferser.edu,15,RI
15,Ivan Dawn,14,Syndye,Ivan.Dawn210@atomlema.ocg,14,FC
5993,Lisa Honjo,63,Roit,Lisa.Honjo4032@virtex.rum,63,AI
59,Lisa Sue,58,Muxicu,Lisa.Sue3422@cmail.com,58,AI
21,Steve Shiramine,20,Pilington,Steve.Shiramine420@ferser.edu,20,GZ
44,Maxine Wolf,43,Muxicu,Maxine.Wolf1892@atomlema.ocg,43,PR
